NORAD_CAT_ID,OBJECT_NAME,OBJECT_TYPE,EPOCH,MEAN_MOTION,ECCENTRICITY,INCLINATION,RA_OF_ASC_NODE,ARG_OF_PERICENTER,MEAN_ANOMALY,BSTAR,MEAN_MOTION_DOT,MEAN_MOTION_DDOT,TLE_LINE0,TLE_LINE1,TLE_LINE2,SEMIMAJOR_AXIS,PERIOD,APOGEE,PERIGEE,DECAYED
53931.0,STARLINK-5015,PAYLOAD,2024-06-05 18:43:35,15.08845639,0.0001282,53.2151,300.4328,87.5153,272.5986,-0.0001411,-2.533e-05,0.0,0 STARLINK-5015,1 53931U 22119AX  24157.78027669 -.00002533  00000-0 -14110-3 0  9995,2 53931  53.2151 300.4328 0001282  87.5153 272.5986 15.08845639 94711,6917.863,95.437,540.615,538.841,0.0
53931.0,STARLINK-5015,PAYLOAD,2024-06-06 02:40:31,15.08833353,0.0001441,53.2134,298.9441,85.2332,274.8825,4.9805e-05,5.05e-06,0.0,0 STARLINK-5015,1 53931U 22119AX  24158.11148110  .00000505  00000-0  49805-4 0  9993,2 53931  53.2134 298.9441 0001441  85.2332 274.8825 15.08833353 94762,6917.901,95.438,540.763,538.769,0.0
53931.0,STARLINK-5015,PAYLOAD,2024-06-07 08:52:51,15.08840531,6.97e-05,53.2182,293.2946,83.8239,276.2833,5.1088e-05,5.26e-06,0.0,0 STARLINK-5015,1 53931U 22119AX  24159.37003597  .00000526  00000-0  51088-4 0  9990,2 53931  53.2182 293.2946 0000697  83.8239 276.2833 15.08840531 94957,6917.879,95.438,540.226,539.262,0.0
53931.0,STARLINK-5015,PAYLOAD,2024-06-07 15:14:23,15.08839298,3.59e-05,53.2155,292.1027,92.6903,267.413,0.00012049,1.631e-05,0.0,0 STARLINK-5015,1 53931U 22119AX  24159.63499497  .00001631  00000-0  12049-3 0  9998,2 53931  53.2155 292.1027 0000359  92.6903 267.4130 15.08839298 95418,6917.883,95.438,539.996,539.499,0.0
53931.0,STARLINK-5015,PAYLOAD,2024-06-08 11:54:23,15.08852653,0.0001543,53.2143,288.2379,92.5874,267.5295,7.714e-05,9.4e-06,0.0,0 STARLINK-5015,1 53931U 22119AX  24160.49610717  .00000940  00000-0  77140-4 0  9990,2 53931  53.2143 288.2379 0001543  92.5874 267.5295 15.08852653 95124,6917.842,95.437,540.774,538.639,0.0
53931.0,STARLINK-5015,PAYLOAD,2024-06-08 15:05:09,15.08856692,9.8e-05,53.2192,287.6457,84.9502,275.1602,0.00016062,2.271e-05,0.0,0 STARLINK-5015,1 53931U 22119AX  24160.62858182  .00002271  00000-0  16062-3 0  9999,2 53931  53.2192 287.6457 0000980  84.9502 275.1602 15.08856692 95567,6917.829,95.436,540.372,539.016,0.0
53931.0,STARLINK-5015,PAYLOAD,2024-06-08 16:40:32,15.08855488,0.0001523,53.2168,287.3456,100.724,259.3924,0.00019902,2.882e-05,0.0,0 STARLINK-5015,1 53931U 22119AX  24160.69482069  .00002882  00000-0  19902-3 0  9997,2 53931  53.2168 287.3456 0001523 100.7240 259.3924 15.08855488 95570,6917.833,95.437,540.752,538.644,0.0
53931.0,STARLINK-5015,PAYLOAD,2024-06-09 11:45:12,15.0883207,0.0001642,53.2157,283.7766,119.738,240.3776,-3.5732e-05,-8.57e-06,0.0,0 STARLINK-5015,1 53931U 22119AX  24161.48972291 -.00000857  00000-0 -35732-4 0  9998,2 53931  53.2157 283.7766 0001642 119.7380 240.3776 15.08832070 95273,6917.905,95.438,540.906,538.634,0.0
53931.0,STARLINK-5015,PAYLOAD,2024-06-09 14:55:58,15.08832833,0.0001264,53.2182,283.1833,105.5916,254.5215,-4.5786e-05,-1.016e-05,0.0,0 STARLINK-5015,1 53931U 22119AX  24161.62220400 -.00001016  00000-0 -45786-4 0  9990,2 53931  53.2182 283.1833 0001264 105.5916 254.5215 15.08832833 95719,6917.902,95.438,540.642,538.893,0.0
53931.0,STARLINK-5015,PAYLOAD,2024-06-09 16:31:21,15.08833264,0.0001339,53.2178,282.8855,105.7382,254.3757,-4.1333e-05,-9.46e-06,0.0,0 STARLINK-5015,1 53931U 22119AX  24161.68844377 -.00000946  00000-0 -41333-4 0  9996,2 53931  53.2178 282.8855 0001339 105.7382 254.3757 15.08833264 95725,6917.901,95.438,540.692,538.84,0.0
53931.0,STARLINK-5015,PAYLOAD,2024-06-10 13:11:21,15.08842462,0.000135,53.2164,279.0202,104.0297,256.0846,1.4309e-05,-6e-07,0.0,0 STARLINK-5015,1 53931U 22119AX  24162.54955755 -.00000060  00000-0  14309-4 0  9994,2 53931  53.2164 279.0202 0001350 104.0297 256.0846 15.08842462 95430,6917.873,95.437,540.672,538.804,0.0
53931.0,STARLINK-5015,PAYLOAD,2024-06-10 14:46:44,15.08852644,0.0001278,53.2165,278.723,98.7475,261.3661,0.00010029,1.309e-05,0.0,0 STARLINK-5015,1 53931U 22119AX  24162.61578895  .00001309  00000-0  10029-3 0  9998,2 53931  53.2165 278.7230 0001278  98.7475 261.3661 15.08852644 95868,6917.842,95.437,540.591,538.823,0.0
53931.0,STARLINK-5015,PAYLOAD,2024-06-11 14:37:31,15.0884166,0.000109,53.218,274.2639,100.4201,259.6914,0.00023686,3.484e-05,0.0,0 STARLINK-5015,1 53931U 22119AX  24163.60939594  .00003484  00000-0  23686-3 0  9994,2 53931  53.2180 274.2639 0001090 100.4201 259.6914 15.08841660 96014,6917.875,95.437,540.494,538.986,0.0
53931.0,STARLINK-5015,PAYLOAD,2024-06-12 00:09:51,15.08837083,9.81e-05,53.2145,272.4819,99.3449,260.7654,3.2817e-05,2.35e-06,0.0,0 STARLINK-5015,1 53931U 22119AX  24164.00684051  .00000235  00000-0  32817-4 0  9992,2 53931  53.2145 272.4819 0000981  99.3449 260.7654 15.08837083 95650,6917.889,95.438,540.433,539.076,0.0
53931.0,STARLINK-5015,PAYLOAD,2024-06-12 06:31:24,15.08837609,0.0001299,53.2176,271.2953,114.3505,245.7623,-1.798e-05,-5.74e-06,0.0,0 STARLINK-5015,1 53931U 22119AX  24164.27180679 -.00000574  00000-0 -17980-4 0  9990,2 53931  53.2176 271.2953 0001299 114.3505 245.7623 15.08837609 96119,6917.888,95.438,540.651,538.854,0.0
53931.0,STARLINK-5015,PAYLOAD,2024-06-12 12:52:57,15.08830986,0.0001208,53.2178,270.1049,109.8916,250.2207,-8.7243e-05,-1.676e-05,0.0,0 STARLINK-5015,1 53931U 22119AX  24164.53677343 -.00001676  00000-0 -87243-4 0  9991,2 53931  53.2178 270.1049 0001208 109.8916 250.2207 15.08830986 95737,6917.908,95.438,540.609,538.937,0.0
53931.0,STARLINK-5015,PAYLOAD,2024-06-12 14:28:20,15.0883197,0.0001207,53.2181,269.8077,109.2006,250.9117,-8.256e-05,-1.601e-05,0.0,0 STARLINK-5015,1 53931U 22119AX  24164.60301274 -.00001601  00000-0 -82560-4 0  9991,2 53931  53.2181 269.8077 0001207 109.2006 250.9117 15.08831970 96169,6917.905,95.438,540.605,538.935,0.0
53931.0,STARLINK-5015,PAYLOAD,2024-06-13 12:43:43,15.0884659,0.0001129,53.218,265.6416,88.202,271.9101,8.8775e-05,1.126e-05,0.0,0 STARLINK-5015,1 53931U 22119AX  24165.53036071  .00001126  00000-0  88775-4 0  9998,2 53931  53.2180 265.6416 0001129  88.2020 271.9101 15.08846590 95882,6917.86,95.437,540.506,538.944,0.0
53931.0,STARLINK-5015,PAYLOAD,2024-06-13 14:19:06,15.08848851,0.0001073,53.2177,265.3441,86.1864,273.925,0.00011409,1.529e-05,0.0,0 STARLINK-5015,1 53931U 22119AX  24165.59659876  .00001529  00000-0  11409-3 0  9994,2 53931  53.2177 265.3441 0001073  86.1864 273.9250 15.08848851 96312,6917.853,95.437,540.461,538.976,0.0
53931.0,STARLINK-5015,PAYLOAD,2024-06-14 14:09:53,15.08838437,9.65e-05,53.217,260.8802,90.1337,269.9766,7.6146e-05,9.24e-06,0.0,0 STARLINK-5015,1 53931U 22119AX  24166.59020807  .00000924  00000-0  76146-4 0  9999,2 53931  53.2170 260.8802 0000965  90.1337 269.9766 15.08838437 96467,6917.885,95.438,540.418,539.083,0.0
53931.0,STARLINK-5015,PAYLOAD,2024-06-15 12:25:16,15.08857367,0.0001044,53.2168,256.7186,82.6357,277.4754,7.6736e-05,9.34e-06,0.0,0 STARLINK-5015,1 53931U 22119AX  24167.51755446  .00000934  00000-0  76736-4 0  9992,2 53931  53.2168 256.7186 0001044  82.6357 277.4754 15.08857367 96600,6917.827,95.436,540.415,538.97,0.0
53931.0,STARLINK-5015,PAYLOAD,2024-06-16 12:16:04,15.08842405,0.0001157,53.2165,252.2594,82.8753,277.2371,3.6042e-05,2.86e-06,0.0,0 STARLINK-5015,1 53931U 22119AX  24168.51116193  .00000286  00000-0  36042-4 0  9999,2 53931  53.2165 252.2594 0001157  82.8753 277.2371 15.08842405 96338,6917.873,95.437,540.538,538.938,0.0
53931.0,STARLINK-5015,PAYLOAD,2024-06-17 21:39:12,15.08823927,9.88e-05,53.2174,246.0137,80.6493,279.4611,-0.00021338,-3.68e-05,0.0,0 STARLINK-5015,1 53931U 22119AX  24169.90222603 -.00003680  00000-0 -21338-3 0  9991,2 53931  53.2174 246.0137 0000988  80.6493 279.4611 15.08823927 96968,6917.93,95.439,540.478,539.111,0.0
53931.0,STARLINK-5015,PAYLOAD,2024-06-18 11:57:39,15.08836669,9.02e-05,53.2157,243.3381,74.0368,286.0723,9.8845e-05,1.286e-05,0.0,0 STARLINK-5015,1 53931U 22119AX  24170.49837558  .00001286  00000-0  98845-4 0  9994,2 53931  53.2157 243.3381 0000902  74.0368 286.0723 15.08836669 96633,6917.891,95.438,540.38,539.132,0.0
53931.0,STARLINK-5015,PAYLOAD,2024-06-18 21:29:58,15.08842423,9.53e-05,53.2159,241.5538,75.7818,284.328,0.000104,1.368e-05,0.0,0 STARLINK-5015,1 53931U 22119AX  24170.89581304  .00001368  00000-0  10400-3 0  9994,2 53931  53.2159 241.5538 0000953  75.7818 284.3280 15.08842423 97111,6917.873,95.437,540.397,539.079,0.0
53931.0,STARLINK-5015,PAYLOAD,2024-06-19 13:23:49,15.08857644,9.43e-05,53.2153,238.5801,69.0691,291.0402,0.00063456,9.83e-05,0.0,0 STARLINK-5015,1 53931U 22119AX  24171.55821423  .00009830  00000-0  63456-3 0  9998,2 53931  53.2153 238.5801 0000943  69.0691 291.0402 15.08857644 97211,6917.826,95.436,540.344,539.039,0.0
53931.0,STARLINK-5015,PAYLOAD,2024-06-20 13:14:36,15.0885339,0.0001377,53.2161,234.1188,52.5674,307.5443,0.00011964,1.617e-05,0.0,0 STARLINK-5015,1 53931U 22119AX  24172.55180938  .00001617  00000-0  11964-3 0  9990,2 53931  53.2161 234.1188 0001377  52.5674 307.5443 15.08853390 97368,6917.839,95.437,540.657,538.752,0.0
53931.0,STARLINK-5015,PAYLOAD,2024-06-21 11:30:00,15.0884876,0.0001116,53.2161,229.9577,78.2397,281.872,-2.708e-05,-7.19e-06,0.0,0 STARLINK-5015,1 53931U 22119AX  24173.47916757 -.00000719  00000-0 -27080-4 0  9999,2 53931  53.2161 229.9577 0001116  78.2397 281.8720 15.08848760 97086,6917.854,95.437,540.491,538.947,0.0
53931.0,STARLINK-5015,PAYLOAD,2024-06-22 12:56:10,15.08843316,0.0001078,53.2167,225.1977,80.6537,279.4577,4.099e-05,3.65e-06,0.0,0 STARLINK-5015,1 53931U 22119AX  24174.53901181  .00000365  00000-0  40990-4 0  9992,2 53931  53.2167 225.1977 0001078  80.6537 279.4577 15.08843316 97247,6917.87,95.437,540.481,538.99,0.0
53931.0,STARLINK-5015,PAYLOAD,2024-06-23 09:36:11,15.08844043,0.0001105,53.2161,221.3325,73.6864,286.4249,0.00010543,1.391e-05,0.0,0 STARLINK-5015,1 53931U 22119AX  24175.40012889  .00001391  00000-0  10543-3 0  9997,2 53931  53.2161 221.3325 0001105  73.6864 286.4249 15.08844043 97794,6917.868,95.437,540.497,538.969,0.0
